[{"OBJECT_NAME":"ERS-2","OBJECT_ID":"1995-021A","EPOCH":"2023-09-15T12:34:20.433504","MEAN_MOTION":15.50454183,"ECCENTRICITY":0.0005303,"INCLINATION":98.5268,"RA_OF_ASC_NODE":238.3186,"ARG_OF_PERICENTER":86.2101,"MEAN_ANOMALY":273.9754,"EPHEMERIS_TYPE":0,"CLASSIFICATION_TYPE":"U","NORAD_CAT_ID":23560,"ELEMENT_SET_NO":999,"REV_AT_EPOCH":52310,"BSTAR":0.00085577,"MEAN_MOTION_DOT":0.00048885,"MEAN_MOTION_DDOT":0},{"OBJECT_NAME":"ARIANE 40+ R\/B","OBJECT_ID":"1995-021B","EPOCH":"2023-09-15T05:26:02.820192","MEAN_MOTION":14.38522801,"ECCENTRICITY":0.0006337,"INCLINATION":98.5659,"RA_OF_ASC_NODE":320.8722,"ARG_OF_PERICENTER":341.1778,"MEAN_ANOMALY":63.3797,"EPHEMERIS_TYPE":0,"CLASSIFICATION_TYPE":"U","NORAD_CAT_ID":23561,"ELEMENT_SET_NO":999,"REV_AT_EPOCH":48886,"BSTAR":0.00017689,"MEAN_MOTION_DOT":4.96e-6,"MEAN_MOTION_DDOT":0},{"OBJECT_NAME":"SL-16 R\/B","OBJECT_ID":"1995-058B","EPOCH":"2023-09-15T11:04:24.658464","MEAN_MOTION":14.15249334,"ECCENTRICITY":0.0010643,"INCLINATION":71.0208,"RA_OF_ASC_NODE":282.5088,"ARG_OF_PERICENTER":54.5207,"MEAN_ANOMALY":305.6908,"EPHEMERIS_TYPE":0,"CLASSIFICATION_TYPE":"U","NORAD_CAT_ID":23705,"ELEMENT_SET_NO":999,"REV_AT_EPOCH":43962,"BSTAR":0.00021028,"MEAN_MOTION_DOT":3.62e-6,"MEAN_MOTION_DDOT":0},{"OBJECT_NAME":"SL-16 R\/B","OBJECT_ID":"1996-051B","EPOCH":"2023-09-15T12:49:27.052896","MEAN_MOTION":14.12516312,"ECCENTRICITY":0.0013916,"INCLINATION":70.8244,"RA_OF_ASC_NODE":290.6532,"ARG_OF_PERICENTER":26.6686,"MEAN_ANOMALY":333.5146,"EPHEMERIS_TYPE":0,"CLASSIFICATION_TYPE":"U","NORAD_CAT_ID":24298,"ELEMENT_SET_NO":999,"REV_AT_EPOCH":39369,"BSTAR":-2.4299e-5,"MEAN_MOTION_DOT":-9.4e-7,"MEAN_MOTION_DDOT":0},{"OBJECT_NAME":"ORBVIEW 2 (SEASTAR)","OBJECT_ID":"1997-037A","EPOCH":"2023-09-15T09:27:12.389760","MEAN_MOTION":14.34153481,"ECCENTRICITY":0.0002101,"INCLINATION":98.7372,"RA_OF_ASC_NODE":29.7597,"ARG_OF_PERICENTER":184.1008,"MEAN_ANOMALY":176.0159,"EPHEMERIS_TYPE":0,"CLASSIFICATION_TYPE":"U","NORAD_CAT_ID":24883,"ELEMENT_SET_NO":999,"REV_AT_EPOCH":37850,"BSTAR":0.00022012,"MEAN_MOTION_DOT":5.71e-6,"MEAN_MOTION_DDOT":0},{"OBJECT_NAME":"SL-16 R\/B","OBJECT_ID":"1998-043G","EPOCH":"2023-09-15T10:48:03.564000","MEAN_MOTION":14.2563762,"ECCENTRICITY":0.0010727,"INCLINATION":98.7101,"RA_OF_ASC_NODE":195.6567,"ARG_OF_PERICENTER":122.1692,"MEAN_ANOMALY":238.0529,"EPHEMERIS_TYPE":0,"CLASSIFICATION_TYPE":"U","NORAD_CAT_ID":25400,"ELEMENT_SET_NO":999,"REV_AT_EPOCH":30984,"BSTAR":7.1335e-5,"MEAN_MOTION_DOT":1.25e-6,"MEAN_MOTION_DDOT":0},{"OBJECT_NAME":"SL-16 R\/B","OBJECT_ID":"1998-045B","EPOCH":"2023-09-15T11:40:41.637792","MEAN_MOTION":14.15930688,"ECCENTRICITY":0.000897,"INCLINATION":71.0096,"RA_OF_ASC_NODE":286.9236,"ARG_OF_PERICENTER":314.624,"MEAN_ANOMALY":45.4151,"EPHEMERIS_TYPE":0,"CLASSIFICATION_TYPE":"U","NORAD_CAT_ID":25407,"ELEMENT_SET_NO":999,"REV_AT_EPOCH":29881,"BSTAR":0.0001275,"MEAN_MOTION_DOT":2.04e-6,"MEAN_MOTION_DDOT":0},{"OBJECT_NAME":"CZ-4B R\/B","OBJECT_ID":"1999-025C","EPOCH":"2023-09-15T13:48:56.585088","MEAN_MOTION":14.17854076,"ECCENTRICITY":0.0038225,"INCLINATION":98.7955,"RA_OF_ASC_NODE":302.0223,"ARG_OF_PERICENTER":66.3799,"MEAN_ANOMALY":53.4614,"EPHEMERIS_TYPE":0,"CLASSIFICATION_TYPE":"U","NORAD_CAT_ID":25732,"ELEMENT_SET_NO":999,"REV_AT_EPOCH":25974,"BSTAR":9.5012e-5,"MEAN_MOTION_DOT":1.52e-6,"MEAN_MOTION_DDOT":0},{"OBJECT_NAME":"OKEAN-O","OBJECT_ID":"1999-039A","EPOCH":"2023-09-15T13:23:43.848096","MEAN_MOTION":14.77701599,"ECCENTRICITY":0.0001673,"INCLINATION":98.0802,"RA_OF_ASC_NODE":305.8857,"ARG_OF_PERICENTER":75.7479,"MEAN_ANOMALY":284.3917,"EPHEMERIS_TYPE":0,"CLASSIFICATION_TYPE":"U","NORAD_CAT_ID":25860,"ELEMENT_SET_NO":999,"REV_AT_EPOCH":30044,"BSTAR":0.00015939,"MEAN_MOTION_DOT":1.089e-5,"MEAN_MOTION_DDOT":0},{"OBJECT_NAME":"SL-16 R\/B","OBJECT_ID":"1999-039B","EPOCH":"2023-09-15T13:13:40.799424","MEAN_MOTION":14.79489799,"ECCENTRICITY":0.001433,"INCLINATION":98.1309,"RA_OF_ASC_NODE":296.9571,"ARG_OF_PERICENTER":311.5778,"MEAN_ANOMALY":48.4204,"EPHEMERIS_TYPE":0,"CLASSIFICATION_TYPE":"U","NORAD_CAT_ID":25861,"ELEMENT_SET_NO":999,"REV_AT_EPOCH":30277,"BSTAR":0.00011644,"MEAN_MOTION_DOT":8.17e-6,"MEAN_MOTION_DDOT":0},{"OBJECT_NAME":"DELTA 2 R\/B","OBJECT_ID":"1999-041E","EPOCH":"2023-09-15T12:37:57.627552","MEAN_MOTION":14.06866347,"ECCENTRICITY":0.0522954,"INCLINATION":51.765,"RA_OF_ASC_NODE":307.2118,"ARG_OF_PERICENTER":203.9236,"MEAN_ANOMALY":153.6572,"EPHEMERIS_TYPE":0,"CLASSIFICATION_TYPE":"U","NORAD_CAT_ID":25876,"ELEMENT_SET_NO":999,"REV_AT_EPOCH":23523,"BSTAR":0.00042586,"MEAN_MOTION_DOT":2.332e-5,"MEAN_MOTION_DDOT":0},{"OBJECT_NAME":"HELIOS 1B","OBJECT_ID":"1999-064A","EPOCH":"2023-09-15T14:17:15.076896","MEAN_MOTION":14.83570734,"ECCENTRICITY":0.0002375,"INCLINATION":98.2817,"RA_OF_ASC_NODE":115.5524,"ARG_OF_PERICENTER":103.0308,"MEAN_ANOMALY":257.117,"EPHEMERIS_TYPE":0,"CLASSIFICATION_TYPE":"U","NORAD_CAT_ID":25977,"ELEMENT_SET_NO":999,"REV_AT_EPOCH":55074,"BSTAR":0.00012522,"MEAN_MOTION_DOT":9.74e-6,"MEAN_MOTION_DDOT":0},{"OBJECT_NAME":"SL-16 R\/B","OBJECT_ID":"2000-006B","EPOCH":"2023-09-15T08:07:27.778080","MEAN_MOTION":14.15563956,"ECCENTRICITY":0.0014663,"INCLINATION":71.0019,"RA_OF_ASC_NODE":203.2157,"ARG_OF_PERICENTER":126.0531,"MEAN_ANOMALY":234.1953,"EPHEMERIS_TYPE":0,"CLASSIFICATION_TYPE":"U","NORAD_CAT_ID":26070,"ELEMENT_SET_NO":999,"REV_AT_EPOCH":22028,"BSTAR":-1.0213e-5,"MEAN_MOTION_DOT":-6.8e-7,"MEAN_MOTION_DDOT":0},{"OBJECT_NAME":"TITAN 4B R\/B","OBJECT_ID":"2000-047B","EPOCH":"2023-09-15T13:11:47.724288","MEAN_MOTION":14.99472126,"ECCENTRICITY":0.0054059,"INCLINATION":67.9943,"RA_OF_ASC_NODE":48.8193,"ARG_OF_PERICENTER":328.3076,"MEAN_ANOMALY":31.4816,"EPHEMERIS_TYPE":0,"CLASSIFICATION_TYPE":"U","NORAD_CAT_ID":26474,"ELEMENT_SET_NO":999,"REV_AT_EPOCH":25660,"BSTAR":0.00024321,"MEAN_MOTION_DOT":2.955e-5,"MEAN_MOTION_DDOT":0}]
