ERS-2                   
1 23560U 95021A   23258.52384761  .00048885  00000+0  85577-3 0  9996
2 23560  98.5268 238.3186 0005303  86.2101 273.9754 15.50454183523100
ARIANE 40+ R/B          
1 23561U 95021B   23258.22642153  .00000496  00000+0  17689-3 0  9991
2 23561  98.5659 320.8722 0006337 341.1778  63.3797 14.38522801488868
SL-16 R/B               
1 23705U 95058B   23258.46139651  .00000362  00000+0  21028-3 0  9995
2 23705  71.0208 282.5088 0010643  54.5207 305.6908 14.15249334439628
SL-16 R/B               
1 24298U 96051B   23258.53434089 -.00000094  00000+0 -24299-4 0  9996
2 24298  70.8244 290.6532 0013916  26.6686 333.5146 14.12516312393694
ORBVIEW 2 (SEASTAR)     
1 24883U 97037A   23258.39389340  .00000571  00000+0  22012-3 0  9992
2 24883  98.7372  29.7597 0002101 184.1008 176.0159 14.34153481378504
SL-16 R/B               
1 25400U 98043G   23258.45004125  .00000125  00000+0  71335-4 0  9996
2 25400  98.7101 195.6567 0010727 122.1692 238.0529 14.25637620309847
SL-16 R/B               
1 25407U 98045B   23258.48659303  .00000204  00000+0  12750-3 0  9995
2 25407  71.0096 286.9236 0008970 314.6240  45.4151 14.15930688298816
CZ-4B R/B               
1 25732U 99025C   23258.57565492  .00000152  00000+0  95012-4 0  9995
2 25732  98.7955 302.0223 0038225  66.3799  53.4614 14.17854076259749
OKEAN-O                 
1 25860U 99039A   23258.55814639  .00001089  00000+0  15939-3 0  9999
2 25860  98.0802 305.8857 0001673  75.7479 284.3917 14.77701599300447
SL-16 R/B               
1 25861U 99039B   23258.55116666  .00000817  00000+0  11644-3 0  9992
2 25861  98.1309 296.9571 0014330 311.5778  48.4204 14.79489799302774
DELTA 2 R/B             
1 25876U 99041E   23258.52636143  .00002332  00000+0  42586-3 0  9998
2 25876  51.7650 307.2118 0522954 203.9236 153.6572 14.06866347235237
HELIOS 1B               
1 25977U 99064A   23258.59531339  .00000974  00000+0  12522-3 0  9990
2 25977  98.2817 115.5524 0002375 103.0308 257.1170 14.83570734550748
SL-16 R/B               
1 26070U 00006B   23258.33851595 -.00000068  00000+0 -10213-4 0  9996
2 26070  71.0019 203.2157 0014663 126.0531 234.1953 14.15563956220289
TITAN 4B R/B            
1 26474U 00047B   23258.54985792  .00002955  00000+0  24321-3 0  9998
2 26474  67.9943  48.8193 0054059 328.3076  31.4816 14.99472126256605
